[
    {
        "Altitude(m)": 703563.653737419,
        "Argument of Periapsis(deg)": 0.0011390121186627068,
        "Eccentricity": 0.0,
        "Inclination(deg)": 45.0,
        "Latitude(deg)": -0.8818045551784887,
        "Longitude(deg)": 65.82752421545227,
        "Mean Anomaly(deg)": -178.8466783352519,
        "RAAN(deg)": 344.9989248058542,
        "Satellite Name": "Constellation 1 1529",
        "Satellite Number": 1529,
        "Semi-Major Axis(m)": 7083131.272910544,
        "Time(s)": 19
    },
    {
        "Altitude(m)": 703569.6898281161,
        "Argument of Periapsis(deg)": 0.0011989601249081123,
        "Eccentricity": 0.0,
        "Inclination(deg)": 45.0,
        "Latitude(deg)": -0.9250132780063941,
        "Longitude(deg)": 65.86628214043719,
        "Mean Anomaly(deg)": -178.78597719500198,
        "RAAN(deg)": 344.9988682166886,
        "Satellite Name": "Constellation 1 1529",
        "Satellite Number": 1529,
        "Semi-Major Axis(m)": 7083131.272910544,
        "Time(s)": 20
    },
    {
        "Altitude(m)": 703575.7464000472,
        "Argument of Periapsis(deg)": 0.001258908131153518,
        "Eccentricity": 0.0,
        "Inclination(deg)": 45.0,
        "Latitude(deg)": -0.9682213981259636,
        "Longitude(deg)": 65.90504103131276,
        "Mean Anomaly(deg)": -178.72527605475213,
        "RAAN(deg)": 344.9988116275231,
        "Satellite Name": "Constellation 1 1529",
        "Satellite Number": 1529,
        "Semi-Major Axis(m)": 7083131.272910544,
        "Time(s)": 21
    },
    {
        "Altitude(m)": 703581.823444763,
        "Argument of Periapsis(deg)": 0.0013188561373989236,
        "Eccentricity": 0.0,
        "Inclination(deg)": 45.0,
        "Latitude(deg)": -1.0114288905867082,
        "Longitude(deg)": 65.94380076829725,
        "Mean Anomaly(deg)": -178.6645749145022,
        "RAAN(deg)": 344.9987550383575,
        "Satellite Name": "Constellation 1 1529",
        "Satellite Number": 1529,
        "Semi-Major Axis(m)": 7083131.272910544,
        "Time(s)": 22
    },
    {
        "Altitude(m)": 703587.920953714,
        "Argument of Periapsis(deg)": 0.0013788041436443293,
        "Eccentricity": 0.0,
        "Inclination(deg)": 45.0,
        "Latitude(deg)": -1.0546357304356653,
        "Longitude(deg)": 65.98256173590191,
        "Mean Anomaly(deg)": -178.60387377425232,
        "RAAN(deg)": 344.9986984491919,
        "Satellite Name": "Constellation 1 1529",
        "Satellite Number": 1529,
        "Semi-Major Axis(m)": 7083131.272910544,
        "Time(s)": 23
    },
    {
        "Altitude(m)": 703594.0389182671,
        "Argument of Periapsis(deg)": 0.001438752149889735,
        "Eccentricity": 0.0,
        "Inclination(deg)": 45.0,
        "Latitude(deg)": -1.097841892718875,
        "Longitude(deg)": 66.0213238143492,
        "Mean Anomaly(deg)": -178.54317263400245,
        "RAAN(deg)": 344.99864186002634,
        "Satellite Name": "Constellation 1 1529",
        "Satellite Number": 1529,
        "Semi-Major Axis(m)": 7083131.272910544,
        "Time(s)": 24
    },
    {
        "Altitude(m)": 703600.1773296905,
        "Argument of Periapsis(deg)": 0.0014987001561351404,
        "Eccentricity": 0.0,
        "Inclination(deg)": 45.0,
        "Latitude(deg)": -1.1410473524800036,
        "Longitude(deg)": 66.06008705196083,
        "Mean Anomaly(deg)": -178.48247149375248,
        "RAAN(deg)": 344.99858527086076,
        "Satellite Name": "Constellation 1 1529",
        "Satellite Number": 1529,
        "Semi-Major Axis(m)": 7083131.272910544,
        "Time(s)": 25
    },
    {
        "Altitude(m)": 703606.3361791582,
        "Argument of Periapsis(deg)": 0.001558648162380546,
        "Eccentricity": 0.0,
        "Inclination(deg)": 45.0,
        "Latitude(deg)": -1.1842520847608644,
        "Longitude(deg)": 66.09885149706074,
        "Mean Anomaly(deg)": -178.42177035350267,
        "RAAN(deg)": 344.99852868169523,
        "Satellite Name": "Constellation 1 1529",
        "Satellite Number": 1529,
        "Semi-Major Axis(m)": 7083131.272910544,
        "Time(s)": 26
    },
    {
        "Altitude(m)": 703612.5154577525,
        "Argument of Periapsis(deg)": 0.0016185961686259519,
        "Eccentricity": 0.0,
        "Inclination(deg)": 45.0,
        "Latitude(deg)": -1.2274560646012007,
        "Longitude(deg)": 66.13761719797554,
        "Mean Anomaly(deg)": -178.3610692132528,
        "RAAN(deg)": 344.99847209252965,
        "Satellite Name": "Constellation 1 1529",
        "Satellite Number": 1529,
        "Semi-Major Axis(m)": 7083131.272910544,
        "Time(s)": 27
    },
    {
        "Altitude(m)": 703618.7151564581,
        "Argument of Periapsis(deg)": 0.0016785441748713573,
        "Eccentricity": 0.0,
        "Inclination(deg)": 45.0,
        "Latitude(deg)": -1.2706592670386505,
        "Longitude(deg)": 66.17638420303435,
        "Mean Anomaly(deg)": -178.30036807300283,
        "RAAN(deg)": 344.9984155033641,
        "Satellite Name": "Constellation 1 1529",
        "Satellite Number": 1529,
        "Semi-Major Axis(m)": 7083131.272910544,
        "Time(s)": 28
    },
    {
        "Altitude(m)": 703624.9352661833,
        "Argument of Periapsis(deg)": 0.001738492181116763,
        "Eccentricity": 0.0,
        "Inclination(deg)": 45.0,
        "Latitude(deg)": -1.3138616671084549,
        "Longitude(deg)": 66.2151525605689,
        "Mean Anomaly(deg)": -178.23966693275287,
        "RAAN(deg)": 344.99835891419855,
        "Satellite Name": "Constellation 1 1529",
        "Satellite Number": 1529,
        "Semi-Major Axis(m)": 7083131.272910544,
        "Time(s)": 29
    },
    {
        "Altitude(m)": 703631.1757777181,
        "Argument of Periapsis(deg)": 0.0017984401873621684,
        "Eccentricity": 0.0,
        "Inclination(deg)": 45.0,
        "Latitude(deg)": -1.3570632398436167,
        "Longitude(deg)": 66.25392215081669,
        "Mean Anomaly(deg)": -178.17896579250308,
        "RAAN(deg)": 344.9983023250329,
        "Satellite Name": "Constellation 1 1529",
        "Satellite Number": 1529,
        "Semi-Major Axis(m)": 7083131.272910544,
        "Time(s)": 30
    },
    {
        "Altitude(m)": 703637.4366817758,
        "Argument of Periapsis(deg)": 0.0018583881936075745,
        "Eccentricity": 0.0,
        "Inclination(deg)": 45.0,
        "Latitude(deg)": -1.4002639602745288,
        "Longitude(deg)": 66.29269335830948,
        "Mean Anomaly(deg)": -178.11826465225315,
        "RAAN(deg)": 344.99824573586733,
        "Satellite Name": "Constellation 1 1529",
        "Satellite Number": 1529,
        "Semi-Major Axis(m)": 7083131.272910544,
        "Time(s)": 31
    },
    {
        "Altitude(m)": 703643.7179689743,
        "Argument of Periapsis(deg)": 0.0019183361998529795,
        "Eccentricity": 0.0,
        "Inclination(deg)": 45.0,
        "Latitude(deg)": -1.4434638034292198,
        "Longitude(deg)": 66.33146606329065,
        "Mean Anomaly(deg)": -178.05756351200318,
        "RAAN(deg)": 344.9981891467018,
        "Satellite Name": "Constellation 1 1529",
        "Satellite Number": 1529,
        "Semi-Major Axis(m)": 7083131.272910544,
        "Time(s)": 32
    },
    {
        "Altitude(m)": 703650.0196298342,
        "Argument of Periapsis(deg)": 0.0019782842060983856,
        "Eccentricity": 0.0,
        "Inclination(deg)": 45.0,
        "Latitude(deg)": -1.4866627443329374,
        "Longitude(deg)": 66.3702403141038,
        "Mean Anomaly(deg)": -177.99686237175334,
        "RAAN(deg)": 344.9981325575362,
        "Satellite Name": "Constellation 1 1529",
        "Satellite Number": 1529,
        "Semi-Major Axis(m)": 7083131.272910544,
        "Time(s)": 33
    },
    {
        "Altitude(m)": 703656.34165479,
        "Argument of Periapsis(deg)": 0.0020382322123437906,
        "Eccentricity": 0.0,
        "Inclination(deg)": 45.0,
        "Latitude(deg)": -1.5298607580084027,
        "Longitude(deg)": 66.40901615909591,
        "Mean Anomaly(deg)": -177.93616123150346,
        "RAAN(deg)": 344.9980759683707,
        "Satellite Name": "Constellation 1 1529",
        "Satellite Number": 1529,
        "Semi-Major Axis(m)": 7083131.272910544,
        "Time(s)": 34
    },
    {
        "Altitude(m)": 703662.68403417,
        "Argument of Periapsis(deg)": 0.002098180218589197,
        "Eccentricity": 0.0,
        "Inclination(deg)": 45.0,
        "Latitude(deg)": -1.5730578194755833,
        "Longitude(deg)": 66.44779364661716,
        "Mean Anomaly(deg)": -177.87546009125347,
        "RAAN(deg)": 344.99801937920506,
        "Satellite Name": "Constellation 1 1529",
        "Satellite Number": 1529,
        "Semi-Major Axis(m)": 7083131.272910544,
        "Time(s)": 35
    },
    {
        "Altitude(m)": 703669.0467582305,
        "Argument of Periapsis(deg)": 0.002158128224834602,
        "Eccentricity": 0.0,
        "Inclination(deg)": 45.0,
        "Latitude(deg)": -1.6162539037511259,
        "Longitude(deg)": 66.48657282502113,
        "Mean Anomaly(deg)": -177.81475895100363,
        "RAAN(deg)": 344.9979627900395,
        "Satellite Name": "Constellation 1 1529",
        "Satellite Number": 1529,
        "Semi-Major Axis(m)": 7083131.272910544,
        "Time(s)": 36
    },
    {
        "Altitude(m)": 703675.4298171158,
        "Argument of Periapsis(deg)": 0.002218076231080008,
        "Eccentricity": 0.0,
        "Inclination(deg)": 45.0,
        "Latitude(deg)": -1.6594489858492794,
        "Longitude(deg)": 66.52535357456802,
        "Mean Anomaly(deg)": -177.75405781075375,
        "RAAN(deg)": 344.99790620087396,
        "Satellite Name": "Constellation 1 1529",
        "Satellite Number": 1529,
        "Semi-Major Axis(m)": 7083131.272910544,
        "Time(s)": 37
    }
]